{
    "links": {
        "self": "http://www.neowsapp.com/rest/v1/neo/3251516?api_key=iIulBulltgU6a56xZRHN4H3l9WmuAYTsLGpBGhQ2"
    },
    "id": "3251516",
    "neo_reference_id": "3251516",
    "name": "(2004 RC11)",
    "designation": "2004 RC11",
    "nasa_jpl_url": "http://ssd.jpl.nasa.gov/sbdb.cgi?sstr=3251516",
    "absolute_magnitude_h": 23.6,
    "estimated_diameter": {
        "kilometers": {
            "estimated_diameter_min": 0.0506471459,
            "estimated_diameter_max": 0.1132504611
        },
        "meters": {
            "estimated_diameter_min": 50.6471458835,
            "estimated_diameter_max": 113.2504610618
        },
        "miles": {
            "estimated_diameter_min": 0.0314706677,
            "estimated_diameter_max": 0.0703705522
        },
        "feet": {
            "estimated_diameter_min": 166.1651821003,
            "estimated_diameter_max": 371.5566426699
        }
    },
    "is_potentially_hazardous_asteroid": false,
    "close_approach_data": [
        {
            "close_approach_date": "2004-08-26",
            "close_approach_date_full": "2004-Aug-26 01:30",
            "epoch_date_close_approach": 1093483800000,
            "relative_velocity": {
                "kilometers_per_second": "7.9137848085",
                "kilometers_per_hour": "28489.6253104374",
                "miles_per_hour": "17702.3452380326"
            },
            "miss_distance": {
                "astronomical": "0.0114044064",
                "lunar": "4.4363140896",
                "kilometers": "1706074.906054368",
                "miles": "1060105.7888635584"
            },
            "orbiting_body": "Earth"
        }
    ],
    "orbital_data": {
        "orbit_id": "12",
        "orbit_determination_date": "2017-04-06 09:12:21",
        "first_observation_date": "2004-09-08",
        "last_observation_date": "2004-10-06",
        "data_arc_in_days": 28,
        "observations_used": 49,
        "orbit_uncertainty": "8",
        "minimum_orbit_intersection": ".00505759",
        "jupiter_tisserand_invariant": "3.895",
        "epoch_osculation": "2453268.5",
        "eccentricity": ".4668426694563086",
        "semi_major_axis": "1.827626477367689",
        "inclination": "1.86047279392568",
        "ascending_node_longitude": "147.6916636859593",
        "orbital_period": "902.4633809002801",
        "perihelion_distance": ".9744124539043273",
        "perihelion_argument": "161.9093123148613",
        "aphelion_distance": "2.680840500831051",
        "perihelion_time": "2453223.964965878636",
        "mean_anomaly": "17.765388184169",
        "mean_motion": ".3989081525289934",
        "equinox": "J2000",
        "orbit_class": {
            "orbit_class_type": "APO",
            "orbit_class_description": "Near-Earth asteroid orbits which cross the Earth’s orbit similar to that of 1862 Apollo",
            "orbit_class_range": "a (semi-major axis) > 1.0 AU; q (perihelion) < 1.017 AU"
        }
    },
    "is_sentry_object": false
}